IRIDIUM 33 DEB          
1 36493U 97051WK  24183.87459990  .00006866  00000+0  16351-2 0  9999
2 36493  86.3611 244.5224 0011811 355.0558   5.0530 14.53651123668013
IRIDIUM 33 DEB          
1 36566U 97051WV  24185.34465449  .00060070  00000+0  98698-2 0  9991
2 36566  86.4121  44.8951 0085588  90.4666 270.6356 14.67886519771511
IRIDIUM 33 DEB          
1 37548U 97051XH  24180.98662510  .00008368  00000+0  24811-2 0  9993
2 37548  86.3534 273.2764 0028380 163.5151 196.6979 14.42997573578381
IRIDIUM 33 DEB          
1 37550U 97051XK  24181.92136301  .00009905  00000+0  23080-2 0  9990
2 37550  86.3807 256.8408 0005464 125.6026 234.5691 14.54725576785778
IRIDIUM 33 DEB          
1 37558U 97051XT  24183.50566381  .00025950  00000+0  23943-2 0  9995
2 37558  86.3837 264.5606 0024464 239.6439 120.2371 14.94299728757561
IRIDIUM 33 DEB          
1 37562U 97051XX  24184.03715877  .00006547  00000+0  17676-2 0  9992
2 37562  86.3765 272.5005 0029579  85.2368  91.4082 14.47477386786539
IRIDIUM 33 DEB          
1 37565U 97051YA  24182.89248883  .00003443  00000+0  94167-3 0  9998
2 37565  86.3505 239.5091 0015339  60.0102 300.2621 14.46935190776134
IRIDIUM 33 DEB          
1 38017U 97051YD  24185.02705311  .00018463  00000+0  71715-2 0  9994
2 38017  86.3365  31.4022 0160590  27.1696 333.7782 14.22942678694339
IRIDIUM 33 DEB          
1 38020U 97051YG  24184.67313091  .00073168  00000+0  14085-1 0  9997
2 38020  86.2772 330.4337 0095181 116.8505 244.2475 14.60295548765651
IRIDIUM 33 DEB          
1 38022U 97051YJ  24183.90930402  .00003214  00000+0  11017-2 0  9993
2 38022  86.2773 246.7219 0049764 344.5498  15.4176 14.35242334615904
IRIDIUM 33 DEB          
1 38028U 97051YQ  24184.85888726  .00002454  00000+0  71935-3 0  9996
2 38028  86.3266 229.1202 0031489  76.6918 283.7791 14.43245668578723
IRIDIUM 33 DEB          
1 38227U 97051ZB  24183.73044364  .00028266  00000+0  38807-2 0  9994
2 38227  86.3043 185.7879 0009305 122.1083 238.1041 14.78219552580733
IRIDIUM 33 DEB          
1 38228U 97051ZC  24183.52345719  .00001672  00000+0  68384-3 0  9996
2 38228  86.2954 273.0072 0068114  94.2699 279.1111 14.25434969772374
IRIDIUM 33 DEB          
1 38229U 97051ZD  24181.03691993  .00016055  00000+0  71032-2 0  9993
2 38229  86.3731  82.1051 0179097 274.5707  83.5041 14.14907758494213
IRIDIUM 33 DEB          
1 38236U 97051ZL  24181.80590533  .00033490  00000+0  61102-2 0  9993
2 38236  86.2301 210.7594 0050533 199.6864 160.2400 14.64988886538822
IRIDIUM 33 DEB          
1 38241U 97051ZR  24184.37388797  .00003717  00000+0  98161-3 0  9996
2 38241  86.3260 222.5285 0004660  60.3712 299.7956 14.48697862525325
IRIDIUM 33 DEB          
1 38469U 97051ZW  24184.07557753  .00044943  00000+0  97347-2 0  9995
2 38469  86.2610 311.3846 0105153  64.3616 296.8409 14.54543541784397
IRIDIUM 33 DEB          
1 38474U 97051AAB 24183.45783331  .00003734  00000+0  10380-2 0  9990
2 38474  86.3450 239.7909 0028860  58.0371 302.3631 14.45993941576556
IRIDIUM 33 DEB          
1 38477U 97051AAE 24184.58842391  .00004785  00000+0  41427-2 0  9993
2 38477  86.4092 299.1901 0436284 314.7319  41.9068 13.50104625695180
IRIDIUM 33 DEB          
1 39594U 97051AAG 24173.01991604  .00013662  00000+0  24059-2 0  9998
2 39594  86.3954 271.5779 0011089 193.5110 166.5809 14.67447148558889
IRIDIUM 33 DEB          
1 39777U 97051AAJ 24184.39221594  .00006991  00000+0  21333-2 0  9997
2 39777  85.9699  68.4323 0074810 143.0088 217.6302 14.40187673552476
IRIDIUM 33 DEB          
1 39778U 97051AAK 24184.55540740  .00004314  00000+0  11858-2 0  9991
2 39778  86.3802 271.1368 0007437   8.1138 352.0183 14.46804417557573
IRIDIUM 33 DEB          
1 39781U 97051AAN 24184.08930796  .00013156  00000+0  67657-2 0  9999
2 39781  86.3706 112.5455 0215930 166.3349 205.1430 14.03873807  6377
IRIDIUM 33 DEB          
1 39783U 97051AAQ 24183.66518666  .00017717  00000+0  37955-2 0  9997
2 39783  86.1635 151.7297 0043769 216.5292 318.8005 14.58010093529461
IRIDIUM 33 DEB          
1 39792U 97051AAZ 24183.96479625  .00024582  00000+0  84965-2 0  9992
2 39792  86.3988  78.3304 0146264 357.8804   2.1750 14.29779790518001
IRIDIUM 33 DEB          
1 40996U 97051ABJ 24184.14664733  .00012403  00000+0  23768-2 0  9990
2 40996  86.3687 241.4282 0015012 102.5286 287.2964 14.63632676546720
IRIDIUM 33 DEB          
1 46435U 97051ABN 24184.41064122  .00010909  00000+0  48752-2 0  9999
2 46435  86.2877  57.1274 0262522 161.1631  13.1220 14.05873022  4135
IRIDIUM 33 DEB          
1 46734U 97051ABR 24169.51747983  .00002548  00000+0  86418-3 0  9990
2 46734  86.2676 240.1488 0042766 317.6795 106.2933 14.35878715551960
IRIDIUM 33 DEB          
1 46965U 97051ABX 24184.33848932  .00003747  00000+0  89220-3 0  9995
2 46965  86.3395 213.7422 0019494 316.5474  53.8190 14.53476164545724
IRIDIUM 33 DEB          
1 46971U 97051ACD 24177.89180851  .00010721  00000+0  19451-2 0  9992
2 46971  86.3450 217.8683 0011702  10.7480 114.8835 14.66113021651187
IRIDIUM 33 DEB          
1 46972U 97051ACE 24183.51925199  .00003255  00000+0  90354-3 0  9997
2 46972  86.3883 266.3786 0011663  79.1458 341.3538 14.46233074539104
IRIDIUM 33 DEB          
1 46974U 97051ACG 24184.14848283  .00013770  00000+0  51577-2 0  9993
2 46974  86.3142 332.8395 0120327 115.2847 246.0870 14.27691984499181
IRIDIUM 33 DEB          
1 46979U 97051ACM 24184.55747115  .00014564  00000+0  35640-2 0  9990
2 46979  86.3492 285.7991 0053267 255.0007 104.5299 14.51567451276703
